EQUISAT                 
1 43552U 98067PA  20329.71695146  .00178157  23172-4  50157-3 0  9993
2 43552  51.6258 177.7625 0002748 233.0843 126.9913 15.93157323135556
AEROCUBE 12A            
1 43556U 18046C   20329.71982951  .00005195  00000-0  18589-3 0  9994
2 43556  51.6416  55.2053 0008333 147.8787 212.2703 15.30434682131915
AEROCUBE 12B            
1 43557U 18046D   20329.61765416  .00002552  00000-0  98659-4 0  9990
2 43557  51.6412  56.7549 0008490 145.3805 214.7730 15.30055676131836
UITMSAT-1               
1 43589U 98067PD  20325.00934518  .09147399  12394-4  58853-3 0  9998
2 43589  51.6128 191.6935 0007320 255.9940 104.0273 16.40872661130679
MAYA-1                  
1 43590U 98067PE  20324.88139739  .05711489  12232-4  70418-3 0  9992
2 43590  51.6106 192.2490 0007498 248.1886 111.8341 16.35304962130589
SIRIUSSAT-1             
1 43595U 98067PG  20328.96268139  .00287220  45550-4  56251-3 0  9991
2 43595  51.6098 182.1960 0005696 167.6408 192.5718 15.99622112130276
SIRIUSSAT-2             
1 43596U 98067PH  20329.15844329  .00295323  47592-4  57179-3 0  9996
2 43596  51.6092 182.0721 0011802 173.7569 186.4966 15.99708115130294
SURFSAT                 
1 43614U 18070B   20329.81940515  .00006162  00000-0  15306-3 0  9996
2 43614  93.0291 221.0232 0017775  78.8808 281.4444 15.40185385123151
CP7 (DAVE)              
1 43615U 18070C   20329.86831734  .00005638  00000-0  14096-3 0  9996
2 43615  93.0294 221.0228 0017973  78.5259 281.8013 15.39983559123150
ELFIN-B                 
1 43616U 18070D   20329.42437592  .00007862  00000-0  18502-3 0  9990
2 43616  93.0251 220.8461 0018216  79.8988 280.4321 15.41792642123155
ELFIN-A                 
1 43617U 18070E   20329.49912296  .00009681  00000-0  22564-3 0  9991
2 43617  93.0305 221.5282 0017627  77.0010 283.3213 15.42084642123175
CUBEBEL-1 (BSUSAT-1)    
1 43666U 18083E   20329.85163890  .00001863  00000-0  93120-4 0  9998
2 43666  97.4769 354.6548 0015443 155.8800  17.2065 15.18606225114955
CICERO 10               
1 43690U 18088A   20329.82614009  .00002160  00000-0  96595-4 0  9990
2 43690  85.0357 332.6332 0017209  82.9912 277.3286 15.20545687113120
IRVINE01                
1 43693U 18088D   20329.72093809  .00005603  00000-0  23054-3 0  9995
2 43693  85.0331 330.8686 0019665  64.8242 295.5037 15.23716714113243
PROXIMA I               
1 43694U 18088E   20329.76584987  .00002450  00000-0  10407-3 0  9997
2 43694  85.0301 330.8002 0021080  57.9273 302.4012 15.22288693113222
PROXIMA II              
1 43696U 18088G   20329.76395558  .00002470  00000-0  10497-3 0  9994
2 43696  85.0302 330.8069 0021126  57.8751 302.4537 15.22288828113221
FACSAT-1                
1 43721U 18096C   20329.93093301  .00003541  00000-0  13294-3 0  9990
2 43721  97.4073  42.5528 0015631 276.5226 199.2012 15.27761019110882
CENTAURI-2              
1 43722U 18096D   20329.67653650  .00004956  00000-0  18103-3 0  9996
2 43722  97.4091  42.7510 0015672 276.0059  83.9395 15.28464791110869
INNOSAT-2               
1 43738U 18096V   20329.83790468  .00006463  00000-0  21483-3 0  9990
2 43738  97.4115  45.5885 0021140 280.1797 214.2245 15.31322219111069
SIRION PATHFINDER-2     
1 43759U 18099B   20329.91179588 -.00000002  00000-0  50107-5 0  9990
2 43759  97.6898  38.7000 0014630  13.5672 346.5938 14.95360035107915
CORVUS-BC 4             
1 43767U 18099K   20329.91266293  .00000317  00000-0  34293-4 0  9994
2 43767  97.6879  37.9326 0012223  18.5674 341.5988 14.94800302107878
MOVE-II                 
1 43780U 18099Y   20329.90732636  .00000676  00000-0  65985-4 0  9997
2 43780  97.6918  38.6897 0013947  24.4037 335.7841 14.95583553107893
SPACEBEE-7              
1 43816U 18099BL  20329.68280027  .00001298  00000-0  12119-3 0  9995
2 43816  97.6932  38.9562 0013352  10.5511 349.5988 14.95844600107443
SPACEBEE-5              
1 43817U 18099BM  20329.16049156  .00002535  00000-0  22693-3 0  9998
2 43817  97.7000  39.1779 0012979  12.2764 347.8772 14.96661864107393
SPACEBEE-6              
1 43818U 18099BN  20329.15496755  .00001675  00000-0  15387-3 0  9995
2 43818  97.6953  38.6647 0013308  12.0316 348.1221 14.96095845107524
SHIELDS 1               
1 43850U 18104B   20329.74874529  .00001253  00000-0  53713-4 0  9990
2 43850  85.0309  69.3616 0014228 192.7424 167.3461 15.21555545107840
STF-1                   
1 43852U 18104D   20329.69782177  .00003116  00000-0  13585-3 0  9995
2 43852  85.0346  70.0272 0013410 208.2059 151.8458 15.21669140107817
ZACUBE-2                
1 43907U 18111AH  20329.94213041  .00001241  00000-0  52631-4 0  9994
2 43907  97.2490 224.7215 0019962 299.7294 192.1780 15.24795421106463
LUME 1                  
1 43908U 18111AJ  20329.78727752  .00002922  00000-0  11783-3 0  9995
2 43908  97.2500 224.8706 0019476 299.0467  60.8820 15.25433512106464
AOBA VELOX-IV           
1 43940U 19003J   20329.84517551  .00004127  00000-0  16358-3 0  9995
2 43940  97.2092  15.4959 0023813  19.7365 340.4790 15.25675758103093
CATSAT-2                
1 44029U 98067PV  20329.89074229  .00063573  00000-0  44453-3 0  9993
2 44029  51.6367 219.1369 0000340  16.0768 344.0242 15.73651334103703
DELPHINI                
1 44030U 98067PW  20329.88570192  .00068014  00000-0  42848-3 0  9995
2 44030  51.6318 215.8829 0000711 140.5776 219.5276 15.76030530103715
UNITE                   
1 44031U 98067PX  20329.86311816  .00025808  00000-0  25769-3 0  9997
2 44031  51.6368 231.6846 0001007 348.1315  11.9657 15.65445879103508
CATSAT-1                
1 44033U 98067PZ  20329.76356338  .00060865  00000-0  42496-3 0  9994
2 44033  51.6367 219.7985 0000948   5.1275 354.9734 15.73703766103594
RAAVANA-1               
1 44329U 98067QE  20329.51304664  .00030194  00000-0  33952-3 0  9999
2 44329  51.6378 249.6867 0004145 222.6803 137.3870 15.62318119 81985
UGUISU                  
1 44330U 98067QF  20329.21656447  .00030260  00000-0  34240-3 0  9992
2 44330  51.6350 251.4143 0004074 220.3975 139.6717 15.62154999 81913
NEPALISAT-1             
1 44331U 98067QG  20329.18427220  .00030996  00000-0  34858-3 0  9995
2 44331  51.6358 251.2005 0004017 224.4457 135.6215 15.62300934 81926
SPOOQY-1                
1 44332U 98067QH  20329.32958091  .00029676  00000-0  33684-3 0  9996
2 44332  51.6362 250.6837 0003201 224.6284 135.4453 15.62088098 81906
SPACEBEE-9              
1 44370U 19037F   20329.91554738  .00026444  00000-0  51928-3 0  9994
2 44370  45.0048 296.8010 0012181  59.4735 300.7356 15.46823410 79412
SPACEBEE-8              
1 44371U 19037G   20329.59546994  .00058666  00000-0  84390-3 0  9994
2 44371  45.0046 285.1287 0010962  84.6680 275.5464 15.55231585 79529
IOD-1 GEMS              
1 44385U 98067QK  20329.19979199  .00064569  00000-0  56278-3 0  9995
2 44385  51.6370 245.3820 0003796 157.4723 202.6441 15.68374047 79488
MOVE-IIB                
1 44398U 19038N   20329.91817791  .00002775  00000-0  16096-3 0  9994
2 44398  97.5564 289.3170 0023673 298.0003  61.8832 15.12784044 76837
SONATE                  
1 44400U 19038Q   20329.93589582  .00001407  00000-0  84963-4 0  9994
2 44400  97.5613 289.3261 0023783 296.3557  63.5232 15.12159198 76822
LUCKY-7                 
1 44406U 19038W   20329.85564442  .00001626  00000-0  96783-4 0  9995
2 44406  97.5618 289.4087 0023034 295.4864  64.3983 15.12465574 76819
BEESAT 9                
1 44412U 19038AC  20329.84251989  .00002710  00000-0  15816-3 0  9992
2 44412  97.5602 289.3826 0021130 301.7345  58.1826 15.12626797 76519
JAISAT-1                
1 44419U 19038F   20329.48089428  .00002103  00000-0  12203-3 0  9999
2 44419  97.5605 289.4107 0019961 301.9445  57.9844 15.13109778 76797
SWIATOWID               
1 44426U 98067QL  20329.78301584  .00093094  00000-0  72405-3 0  9998
2 44426  51.6380 240.0191 0004631 156.1903 301.9553 15.70972919 79610
KRAKSAT                 
1 44427U 98067QM  20329.85699138  .00022606  00000-0  28973-3 0  9994
2 44427  51.6412 254.0696 0003448 163.8737 301.3009 15.59067448 79470
VCC A                   
1 44428U 98067QN  20329.51597152  .00027699  00000-0  32298-3 0  9993
2 44428  51.6386 252.0090 0002512 171.3058 188.7980 15.61430311 79479
ENTRYSAT                
1 44429U 98067QP  20329.91973637  .00035583  00000-0  38053-3 0  9990
2 44429  51.6360 247.1495 0002819 162.5738 197.5353 15.63526513 79578
VCC C                   
1 44430U 98067QQ  20329.78027597  .00045866  00000-0  43709-3 0  9991
2 44430  51.6358 244.7210 0002633 159.8254 200.2846 15.66318061 78423
VCC B                   
1 44431U 98067QR  20329.50869158  .00028151  00000-0  32660-3 0  9991
2 44431  51.6366 251.9224 0002637 172.0363 188.0673 15.61551155 79419
DUCHIFAT-3              
1 44854U 19089C   20329.81410309  .00000751  00000-0  66878-4 0  9996
2 44854  36.9665 230.5703 0009717 281.6545  78.3125 14.99210295 52372
EYESAT-NANO             
1 44877U 19092E   20329.76086632  .00002721  00000-0  14000-3 0  9995
2 44877  97.4550 150.4720 0013545 175.9148 184.2198 15.17204157 51893
ORBITAL FACTORY 2 (OF-2)
1 45113U 19071C   20329.65080571  .00004606  00000-0  14837-3 0  9992
2 45113  51.6423 309.3257 0011921 275.8292  84.1331 15.34126402 45710
M2 PATHFINDER           
1 45727U 20037E   20329.50737558  .00000105  00000-0  16024-4 0  9996
2 45727  97.7055 145.9170 0013642 124.8545 235.3964 14.91258753 21877
NETSAT-4                
1 46504U 20068U   20329.77874041  .00001053  00000-0  85234-4 0  9994
2 46504  97.6665 262.5954 0011695  67.3530 292.8951 15.01852336  8513
NETSAT-3                
1 46505U 20068V   20329.84681730  .00000771  00000-0  63652-4 0  9990
2 46505  97.6639 262.6569 0011573  69.4331 290.8132 15.01808721  8535
NETSAT-1                
1 46506U 20068W   20329.78179635  .00000768  00000-0  63501-4 0  9999
2 46506  97.6649 262.5910 0011284  68.8553 291.3915 15.01766542  8522
